GLOBALSTAR M001 [-]     
1 25162U 98008A   23339.70753397 -.00000054  00000+0  32914-3 0  9993
2 25162  52.0004 161.5788 0002555 126.0898   0.4614 12.38174710174401
GLOBALSTAR M004 [-]     
1 25163U 98008B   23339.26691223 -.00000069  00000+0  19468-3 0  9999
2 25163  52.0012 322.2689 0003165 120.5621 341.0040 12.63343680190911
GLOBALSTAR M002 [-]     
1 25164U 98008C   23339.78948680 -.00000077  00000+0 -18709-4 0  9997
2 25164  51.9991 202.7859 0001236 139.8504 220.2407 11.61497836119069
GLOBALSTAR M003 [-]     
1 25165U 98008D   23339.26288150  .00000044  00000+0  14230-2 0  9995
2 25165  51.9797 279.3751 0007394 247.2915 260.7856 12.11958433165324
GLOBALSTAR M014 [-]     
1 25306U 98023A   23339.87363317 -.00000050  00000+0  52426-3 0  9993
2 25306  51.9808 137.5536 0001799  83.2472  65.3771 11.65462855125955
GLOBALSTAR M006 [-]     
1 25307U 98023B   23339.02964338 -.00000069  00000+0  13686-3 0  9996
2 25307  51.9901 171.2269 0003855 160.6835   9.6418 11.58157560151927
GLOBALSTAR M015 [-]     
1 25308U 98023C   23339.76438434 -.00000080  00000+0 -14982-3 0  9995
2 25308  51.9816 242.2355 0012217 154.7480 217.1887 11.48858104129786
GLOBALSTAR M008 [-]     
1 25309U 98023D   23339.41850944 -.00000071  00000+0  19997-3 0  9992
2 25309  51.9992  20.9126 0002781  80.6839  25.2629 12.36032804168626
